$$SOE
2461288.500000000, A.D. 2026-Sep-05 00:00:00.0000, -1.791110841382684E+08, 3.710157306659249E+08, 1.129327274149029E+07,
2461295.500000000, A.D. 2026-Sep-12 00:00:00.0000, -1.899420679902989E+08, 3.673593993831009E+08, 1.124513460004310E+07,
2461302.500000000, A.D. 2026-Sep-19 00:00:00.0000, -2.006430551897904E+08, 3.634513596685723E+08, 1.118928555087464E+07,
2461309.500000000, A.D. 2026-Sep-26 00:00:00.0000, -2.112082933294675E+08, 3.592971529830964E+08, 1.112585210821915E+07,
2461316.500000000, A.D. 2026-Oct-03 00:00:00.0000, -2.216322877075310E+08, 3.549024223581406E+08, 1.105496491686527E+07,
2461323.500000000, A.D. 2026-Oct-10 00:00:00.0000, -2.319097995309803E+08, 3.502728996816976E+08, 1.097675839275074E+07,
2461330.500000000, A.D. 2026-Oct-17 00:00:00.0000, -2.420358435513601E+08, 3.454143933929046E+08, 1.089137037031430E+07,
2461337.500000000, A.D. 2026-Oct-24 00:00:00.0000, -2.520056851610545E+08, 3.403327765822276E+08, 1.079894175341272E+07,
2461344.500000000, A.D. 2026-Oct-31 00:00:00.0000, -2.618148369028384E+08, 3.350339754452412E+08, 1.069961615608484E+07,
2461351.500000000, A.D. 2026-Nov-07 00:00:00.0000, -2.714590541038748E+08, 3.295239581743621E+08, 1.059353950883655E+07,
2461358.500000000, A.D. 2026-Nov-14 00:00:00.0000, -2.809343294824765E+08, 3.238087251822423E+08, 1.048085968519090E+07,
2461365.500000000, A.D. 2026-Nov-21 00:00:00.0000, -2.902368885879547E+08, 3.178943013426017E+08, 1.036172637088996E+07,
2461372.500000000, A.D. 2026-Nov-28 00:00:00.0000, -2.993631871168621E+08, 3.117867272425835E+08, 1.023629102180721E+07,
2461379.500000000, A.D. 2026-Dec-05 00:00:00.0000, -3.083099065261105E+08, 3.054920487860323E+08, 1.010470652547780E+07,
2461386.500000000, A.D. 2026-Dec-12 00:00:00.0000, -3.170739478192896E+08, 2.990163082505569E+08, 9.967126805811584E+06,
2461393.500000000, A.D. 2026-Dec-19 00:00:00.0000, -3.256524254339758E+08, 2.923655367988263E+08, 9.823706544660553E+06,
2461400.500000000, A.D. 2026-Dec-26 00:00:00.0000, -3.340426614071599E+08, 2.855457475679661E+08, 9.674600962349936E+06,
2461407.500000000, A.D. 2027-Jan-02 00:00:00.0000, -3.422421795739828E+08, 2.785629291337103E+08, 9.519965616291091E+06,
2461414.500000000, A.D. 2027-Jan-09 00:00:00.0000, -3.502486997122977E+08, 2.714230393539851E+08, 9.359956208591938E+06,
2461421.500000000, A.D. 2027-Jan-16 00:00:00.0000, -3.580601316267344E+08, 2.641319995834935E+08, 9.194728400086880E+06,
2461428.500000000, A.D. 2027-Jan-23 00:00:00.0000, -3.656745691551471E+08, 2.566956892021966E+08, 9.024437623174831E+06,
2461435.500000000, A.D. 2027-Jan-30 00:00:00.0000, -3.730902839374087E+08, 2.491199403933181E+08, 8.849238872029215E+06,
2461442.500000000, A.D. 2027-Feb-06 00:00:00.0000, -3.803057185467075E+08, 2.414105334949230E+08, 8.669286458533704E+06,
2461449.500000000, A.D. 2027-Feb-13 00:00:00.0000, -3.873194794653316E+08, 2.335731941282614E+08, 8.484733875224039E+06,
2461456.500000000, A.D. 2027-Feb-20 00:00:00.0000, -3.941303322883202E+08, 2.256135912950269E+08, 8.295733916641042E+06,
2461463.500000000, A.D. 2027-Feb-27 00:00:00.0000, -4.007371977749323E+08, 2.175373332131261E+08, 8.102438667704031E+06,
2461470.500000000, A.D. 2027-Mar-06 00:00:00.0000, -4.071391457409124E+08, 2.093499627939647E+08, 7.904999238937512E+06,
2461477.500000000, A.D. 2027-Mar-13 00:00:00.0000, -4.133353884038683E+08, 2.010569547893795E+08, 7.703565562274203E+06,
2461484.500000000, A.D. 2027-Mar-20 00:00:00.0000, -4.193252743245124E+08, 1.926637137550392E+08, 7.498286282123089E+06,
2461491.500000000, A.D. 2027-Mar-27 00:00:00.0000, -4.251082827524406E+08, 1.841755722645276E+08, 7.289308677742079E+06,
2461498.500000000, A.D. 2027-Apr-03 00:00:00.0000, -4.306840181817870E+08, 1.755977893095250E+08, 7.076778593932793E+06,
2461505.500000000, A.D. 2027-Apr-10 00:00:00.0000, -4.360522050622951E+08, 1.669355488924775E+08, 6.860840375873610E+06,
2461512.500000000, A.D. 2027-Apr-17 00:00:00.0000, -4.412126826492696E+08, 1.581939587812068E+08, 6.641636804442048E+06,
2461519.500000000, A.D. 2027-Apr-24 00:00:00.0000, -4.461653999175104E+08, 1.493780493475034E+08, 6.419309019239821E+06,
2461526.500000000, A.D. 2027-May-01 00:00:00.0000, -4.509104102427499E+08, 1.404927725021341E+08, 6.193996403695308E+06,
2461533.500000000, A.D. 2027-May-08 00:00:00.0000, -4.554478655453001E+08, 1.315430014595702E+08, 5.965836464824416E+06,
2461540.500000000, A.D. 2027-May-15 00:00:00.0000, -4.597780113945333E+08, 1.225335322710055E+08, 5.734964922452815E+06,
2461547.500000000, A.D. 2027-May-22 00:00:00.0000, -4.639011846404217E+08, 1.134690845203520E+08, 5.501515939082861E+06,
2461554.500000000, A.D. 2027-May-29 00:00:00.0000, -4.678178102170821E+08, 1.043542997030891E+08, 5.265622062320292E+06,
2461561.500000000, A.D. 2027-Jun-05 00:00:00.0000, -4.715283962312309E+08, 9.519374040737350E+07, 5.027414054542206E+06,
2461568.500000000, A.D. 2027-Jun-12 00:00:00.0000, -4.750335293416455E+08, 8.599189071597847E+07, 4.787020828999259E+06,
2461575.500000000, A.D. 2027-Jun-19 00:00:00.0000, -4.783338707607335E+08, 7.675315688240780E+07, 4.544569446011674E+06,
2461582.500000000, A.D. 2027-Jun-26 00:00:00.0000, -4.814301525979868E+08, 6.748186800973681E+07, 4.300185122108798E+06,
2461589.500000000, A.D. 2027-Jul-03 00:00:00.0000, -4.843231744112607E+08, 5.818227673078393E+07, 4.053991240611967E+06,
2461596.500000000, A.D. 2027-Jul-10 00:00:00.0000, -4.870137999266658E+08, 4.885855988892609E+07, 3.806109360970449E+06,
2461603.500000000, A.D. 2027-Jul-17 00:00:00.0000, -4.895029538882068E+08, 3.951481917175760E+07, 3.556659220333315E+06,
2461610.500000000, A.D. 2027-Jul-24 00:00:00.0000, -4.917916188780900E+08, 3.015508162641480E+07, 3.305758707871635E+06,
2461617.500000000, A.D. 2027-Jul-31 00:00:00.0000, -4.938808316933785E+08, 2.078330028426378E+07, 3.053523793355691E+06,
2461624.500000000, A.D. 2027-Aug-07 00:00:00.0000, -4.957716794765534E+08, 1.140335603925592E+07, 2.800068522470816E+06,
2461631.500000000, A.D. 2027-Aug-14 00:00:00.0000, -4.974652978983269E+08, 2.019060519422169E+06, 2.545505269056826E+06,
2461638.500000000, A.D. 2027-Aug-21 00:00:00.0000, -4.989628707727975E+08, -7.365843418870093E+06, 2.289944912366590E+06,
2461645.500000000, A.D. 2027-Aug-28 00:00:00.0000, -5.002656276710038E+08, -1.674768237508885E+07, 2.033496722824946E+06,
2461652.500000000, A.D. 2027-Sep-04 00:00:00.0000, -5.013748407086657E+08, -2.612285176923441E+07, 1.776268268975660E+06,
2461659.500000000, A.D. 2027-Sep-11 00:00:00.0000, -5.022918218982098E+08, -3.548781455369445E+07, 1.518365419227652E+06,
2461666.500000000, A.D. 2027-Sep-18 00:00:00.0000, -5.030179209277217E+08, -4.483909992756317E+07, 1.259892372639837E+06,
2461673.500000000, A.D. 2027-Sep-25 00:00:00.0000, -5.035545231340855E+08, -5.417330213572932E+07, 1.000951691020101E+06,
2461680.500000000, A.D. 2027-Oct-02 00:00:00.0000, -5.039030475918069E+08, -6.348707932966415E+07, 7.416443273128420E+05,
2461687.500000000, A.D. 2027-Oct-09 00:00:00.0000, -5.040649452923557E+08, -7.277715249843507E+07, 4.820696474257559E+05,
2461694.500000000, A.D. 2027-Oct-16 00:00:00.0000, -5.040416973485721E+08, -8.204030452797806E+07, 2.223254348137006E+05,
2461701.500000000, A.D. 2027-Oct-23 00:00:00.0000, -5.038348129617388E+08, -9.127337939664182E+07, -3.749214681451768E+04,
2461708.500000000, A.D. 2027-Oct-30 00:00:00.0000, -5.034458267734172E+08, -1.004732808985144E+08, -2.972886173892766E+05,
2461715.500000000, A.D. 2027-Nov-06 00:00:00.0000, -5.028762967616691E+08, -1.096369697683005E+08, -5.569710722457618E+05,
2461722.500000000, A.D. 2027-Nov-13 00:00:00.0000, -5.021278046636769E+08, -1.187614612863526E+08, -8.164478895331696E+05,
2461729.500000000, A.D. 2027-Nov-20 00:00:00.0000, -5.012019560205681E+08, -1.278438255518490E+08, -1.075628698189087E+06,
2461736.500000000, A.D. 2027-Nov-27 00:00:00.0000, -5.001003782238483E+08, -1.368811874607157E+08, -1.334424512522236E+06,
2461743.500000000, A.D. 2027-Dec-04 00:00:00.0000, -4.988247185827551E+08, -1.458707254755933E+08, -1.592747773047857E+06,
2461750.500000000, A.D. 2027-Dec-11 00:00:00.0000, -4.973766429594653E+08, -1.548096701537967E+08, -1.850512321885303E+06,
2461757.500000000, A.D. 2027-Dec-18 00:00:00.0000, -4.957578346946322E+08, -1.636953027742542E+08, -2.107633365694322E+06,
2461764.500000000, A.D. 2027-Dec-25 00:00:00.0000, -4.939699936690179E+08, -1.725249540668967E+08, -2.364027440253280E+06,
2461771.500000000, A.D. 2028-Jan-01 00:00:00.0000, -4.920148354573950E+08, -1.812960030308558E+08, -2.619612379213825E+06,
$$EOE